{"type": "FeatureCollection", "features": [{"type": "Feature", "properties": {"quadrante": "A1", "n": 1, "cx": 2, "cy": 3, "area_mg_km2": 305.6, "municipios": "Congonhas"}, "geometry": {"type": "Polygon", "coordinates": [[[-44.01744892185655, -20.64837407645254], [-43.56829127979679, -20.64837407645254], [-43.56829127979679, -20.227491663088735], [-44.01744892185655, -20.227491663088735], [-44.01744892185655, -20.64837407645254]]]}}, {"type": "Feature", "properties": {"quadrante": "A1", "n": 2, "cx": 1, "cy": 4, "area_mg_km2": 561.0, "municipios": "Belo Horizonte, Betim, Contagem"}, "geometry": {"type": "Polygon", "coordinates": [[[-44.46660656391631, -20.227491663088735], [-44.01744892185655, -20.227491663088735], [-44.01744892185655, -19.805466950154656], [-44.46660656391631, -19.805466950154656], [-44.46660656391631, -20.227491663088735]]]}}, {"type": "Feature", "properties": {"quadrante": "A1", "n": 3, "cx": 2, "cy": 4, "area_mg_km2": 296.6, "municipios": "Belo Horizonte, Contagem"}, "geometry": {"type": "Polygon", "coordinates": [[[-44.01744892185655, -20.227491663088735], [-43.56829127979679, -20.227491663088735], [-43.56829127979679, -19.805466950154656], [-44.01744892185655, -19.805466950154656], [-44.01744892185655, -20.227491663088735]]]}}, {"type": "Feature", "properties": {"quadrante": "A2", "n": 1, "cx": 1, "cy": 5, "area_mg_km2": 9.4, "municipios": "Contagem, São José da Lapa"}, "geometry": {"type": "Polygon", "coordinates": [[[-44.46660656391631, -19.805466950154656], [-44.01744892185655, -19.805466950154656], [-44.01744892185655, -19.382319795149076], [-44.46660656391631, -19.382319795149076], [-44.46660656391631, -19.805466950154656]]]}}, {"type": "Feature", "properties": {"quadrante": "A2", "n": 2, "cx": 2, "cy": 5, "area_mg_km2": 56.2, "municipios": "Belo Horizonte, São José da Lapa"}, "geometry": {"type": "Polygon", "coordinates": [[[-44.01744892185655, -19.805466950154656], [-43.56829127979679, -19.805466950154656], [-43.56829127979679, -19.382319795149076], [-44.01744892185655, -19.382319795149076], [-44.01744892185655, -19.805466950154656]]]}}, {"type": "Feature", "properties": {"quadrante": "A2", "n": 3, "cx": 4, "cy": 5, "area_mg_km2": 33.9, "municipios": "Ipatinga, Timóteo"}, "geometry": {"type": "Polygon", "coordinates": [[[-43.11913363773703, -19.805466950154656], [-42.66997599567727, -19.805466950154656], [-42.66997599567727, -19.382319795149076], [-43.11913363773703, -19.382319795149076], [-43.11913363773703, -19.805466950154656]]]}}, {"type": "Feature", "properties": {"quadrante": "A2", "n": 4, "cx": 2, "cy": 6, "area_mg_km2": 124.6, "municipios": "Conceição do Mato Dentro"}, "geometry": {"type": "Polygon", "coordinates": [[[-44.01744892185655, -19.382319795149076], [-43.56829127979679, -19.382319795149076], [-43.56829127979679, -18.95807035292785], [-44.01744892185655, -18.95807035292785], [-44.01744892185655, -19.382319795149076]]]}}, {"type": "Feature", "properties": {"quadrante": "A2", "n": 5, "cx": 3, "cy": 6, "area_mg_km2": 730.5, "municipios": "Conceição do Mato Dentro"}, "geometry": {"type": "Polygon", "coordinates": [[[-43.56829127979679, -19.382319795149076], [-43.11913363773703, -19.382319795149076], [-43.11913363773703, -18.95807035292785], [-43.56829127979679, -18.95807035292785], [-43.56829127979679, -19.382319795149076]]]}}, {"type": "Feature", "properties": {"quadrante": "A2", "n": 6, "cx": 4, "cy": 6, "area_mg_km2": 5.4, "municipios": "Conceição do Mato Dentro, Ipatinga"}, "geometry": {"type": "Polygon", "coordinates": [[[-43.11913363773703, -19.382319795149076], [-42.66997599567727, -19.382319795149076], [-42.66997599567727, -18.95807035292785], [-43.11913363773703, -18.95807035292785], [-43.11913363773703, -19.382319795149076]]]}}, {"type": "Feature", "properties": {"quadrante": "A2", "n": 7, "cx": 2, "cy": 7, "area_mg_km2": 466.0, "municipios": "Conceição do Mato Dentro"}, "geometry": {"type": "Polygon", "coordinates": [[[-44.01744892185655, -18.95807035292785], [-43.56829127979679, -18.95807035292785], [-43.56829127979679, -18.532739072260632], [-44.01744892185655, -18.532739072260632], [-44.01744892185655, -18.95807035292785]]]}}, {"type": "Feature", "properties": {"quadrante": "A2", "n": 8, "cx": 3, "cy": 7, "area_mg_km2": 404.3, "municipios": "Conceição do Mato Dentro"}, "geometry": {"type": "Polygon", "coordinates": [[[-43.56829127979679, -18.95807035292785], [-43.11913363773703, -18.95807035292785], [-43.11913363773703, -18.532739072260632], [-43.56829127979679, -18.532739072260632], [-43.56829127979679, -18.95807035292785]]]}}, {"type": "Feature", "properties": {"quadrante": "B2", "n": 1, "cx": 5, "cy": 5, "area_mg_km2": 271.6, "municipios": "Ipatinga, Timóteo"}, "geometry": {"type": "Polygon", "coordinates": [[[-42.66997599567727, -19.805466950154656], [-42.22081835361751, -19.805466950154656], [-42.22081835361751, -19.382319795149076], [-42.66997599567727, -19.382319795149076], [-42.66997599567727, -19.805466950154656]]]}}, {"type": "Feature", "properties": {"quadrante": "B2", "n": 2, "cx": 5, "cy": 6, "area_mg_km2": 3.6, "municipios": "Ipatinga"}, "geometry": {"type": "Polygon", "coordinates": [[[-42.66997599567727, -19.382319795149076], [-42.22081835361751, -19.382319795149076], [-42.22081835361751, -18.95807035292785], [-42.66997599567727, -18.95807035292785], [-42.66997599567727, -19.382319795149076]]]}}]}