{"type": "FeatureCollection", "features": [{"type": "Feature", "properties": {"id": "A1", "n_celulas": 3, "area_mg_km2": 1163.2, "municipios": "Belo Horizonte, Betim, Congonhas, Contagem", "pu_mes": 2288.8}, "geometry": {"type": "Polygon", "coordinates": [[[-44.915764205976075, -21.903973471822486], [-42.66997599567727, -21.903973471822486], [-42.66997599567727, -19.805466950154656], [-44.915764205976075, -19.805466950154656], [-44.915764205976075, -21.903973471822486]]]}}, {"type": "Feature", "properties": {"id": "A2", "n_celulas": 8, "area_mg_km2": 1830.1, "municipios": "Belo Horizonte, Conceição do Mato Dentro, Contagem, Ipatinga, São José da Lapa, Timóteo", "pu_mes": 6103.5}, "geometry": {"type": "Polygon", "coordinates": [[[-44.915764205976075, -19.805466950154656], [-42.66997599567727, -19.805466950154656], [-42.66997599567727, -17.678914238335743], [-44.915764205976075, -17.678914238335743], [-44.915764205976075, -19.805466950154656]]]}}, {"type": "Feature", "properties": {"id": "B2", "n_celulas": 2, "area_mg_km2": 275.3, "municipios": "Ipatinga, Timóteo", "pu_mes": 1525.9}, "geometry": {"type": "Polygon", "coordinates": [[[-42.66997599567727, -19.805466950154656], [-40.424187785378464, -19.805466950154656], [-40.424187785378464, -17.678914238335743], [-42.66997599567727, -17.678914238335743], [-42.66997599567727, -19.805466950154656]]]}}]}